[
  {
    "OBJECT_NAME": "ISS (ZARYA)",
    "OBJECT_ID": "1998-067A",
    "EPOCH": "2008-09-20T12:25:40.104192",
    "MEAN_MOTION": 15.72125391,
    "ECCENTRICITY": 0.0006703,
    "INCLINATION": 51.6416,
    "RA_OF_ASC_NODE": 247.4627,
    "ARG_OF_PERICENTER": 130.5360,
    "MEAN_ANOMALY": 325.0288,
    "EPHEMERIS_TYPE": 0,
    "CLASSIFICATION_TYPE": "U",
    "NORAD_CAT_ID": 25544,
    "ELEMENT_SET_NO": 292,
    "REV_AT_EPOCH": 56353,
    "BSTAR": -1.1606e-5,
    "MEAN_MOTION_DOT": -2.182e-5,
    "MEAN_MOTION_DDOT": 0.0
  },
  {
    "OBJECT_NAME": "VANGUARD 1",
    "OBJECT_ID": "1958-002B",
    "EPOCH": "2000-06-27T18:50:19.733568",
    "MEAN_MOTION": 10.82419157,
    "ECCENTRICITY": 0.1859667,
    "INCLINATION": 34.2682,
    "RA_OF_ASC_NODE": 348.7242,
    "ARG_OF_PERICENTER": 331.7664,
    "MEAN_ANOMALY": 19.3264,
    "EPHEMERIS_TYPE": 0,
    "CLASSIFICATION_TYPE": "U",
    "NORAD_CAT_ID": 5,
    "ELEMENT_SET_NO": 475,
    "REV_AT_EPOCH": 41366,
    "BSTAR": 2.8098e-5,
    "MEAN_MOTION_DOT": 2.3e-7,
    "MEAN_MOTION_DDOT": 0.0
  }
]
